STARLINK-6059           
1 56814U 23078AZ  26060.27983441 -.00000404  00000+0 -26075-4 0  9999
2 56814  70.0033   5.5351 0002621 274.6653  85.4207 14.98314761151425
STARLINK-6067           
1 56816U 23078BB  26060.17944874 -.00000853  00000+0 -63676-4 0  9993
2 56816  70.0020 345.7160 0002849 262.3135  97.7701 14.98325529151903
STARLINK-6028           
1 56818U 23078BD  26060.27147664  .00000015  00000+0  90734-5 0  9992
2 56818  70.0028   5.5052 0002506 272.2929  87.7943 14.98331046152117
STARLINK-30119          
1 56823U 23079A   26060.50003471  .00063882  00000+0  41652-2 0  9995
2 56823  43.0004 151.9727 0001531 247.5847  28.1979 15.07053768  5661
STARLINK-30120          
1 56824U 23079B   26060.38167887  .00111042  00000+0  79178-2 0  9990
2 56824  43.0024 152.6048 0001123 261.5328  98.5387 15.03419782151951
STARLINK-30084          
1 56825U 23079C   26060.50003471  .00057238  00000+0  33585-2 0  9991
2 56825  43.0005 151.7601 0002205 265.5633  98.8209 15.10952373  5614
STARLINK-30114          
1 56826U 23079D   26058.33488656  .00031380  00000+0  23136-2 0  9993
2 56826  43.0022 163.7181 0001724 152.6916 207.4018 15.02765231151642
STARLINK-30151          
1 56827U 23079E   26060.50003471  .00059318  00000+0  40376-2 0  9990
2 56827  43.0007 151.8243 0002586 267.7853  68.3748 15.05492762  5818
STARLINK-30152          
1 56828U 23079F   26060.50003471  .00061499  00000+0  40372-2 0  9990
2 56828  43.0016 151.7688 0002491 270.0803  92.8936 15.06818902  5818
STARLINK-30128          
1 56832U 23079K   26060.20804358  .00003449  00000+0  27003-3 0  9993
2 56832  43.0017 127.4554 0000887 297.5821  62.4931 15.02565722145501
STARLINK-30131          
1 56833U 23079L   26060.19698066  .00002270  00000+0  18300-3 0  9990
2 56833  43.0015 127.5339 0001023 298.0953  61.9786 15.02550483151908
STARLINK-30069          
1 56834U 23079M   26060.50003471 -.00009539  00000+0 -34632-3 0  9999
2 56834  42.9999 149.8322 0001101 280.0105 179.6660 15.26745457  5475
STARLINK-30144          
1 56835U 23079N   26060.50003471  .00018012  00000+0  67735-3 0  9994
2 56835  42.9996 149.9088 0001041 281.1420 149.4966 15.26845949  5671
STARLINK-30142          
1 56836U 23079P   26060.50003471  .00000248  00000+0  18535-4 0  9992
2 56836  43.0004 150.0628 0001427 279.7232  85.4574 15.27576594  5671
STARLINK-30133          
1 56837U 23079Q   26060.50003471  .00055334  00000+0  35517-2 0  9996
2 56837  43.0002 151.5623 0001758 314.8613 125.9122 15.07694998  5678
STARLINK-30123          
1 56838U 23079R   26060.10756812 -.00001511  00000+0 -45413-4 0  9995
2 56838  43.0072  82.4041 0000939 222.3991 137.6788 15.27573897152435
STARLINK-30076          
1 56839U 23079S   26060.28621843 -.00002403  00000+0 -16300-3 0  9993
2 56839  43.0021 152.7366 0001624 289.7911  70.2757 15.02513432151622
STARLINK-30073          
1 56840U 23079T   26060.50003471 -.01118494  00000+0 -33110-1 0  9996
2 56840  43.0049 338.8176 0001667 267.6713 279.6900 15.36959636  5835
STARLINK-30078          
1 56841U 23079U   26060.48516637 -.00000176  00000+0  31329-5 0  9996
2 56841  43.0008 105.6991 0001275 274.1016  85.9690 15.27580844152197
STARLINK-30135          
1 56842U 23079V   26060.45449175  .00134079  00000+0  94707-2 0  9991
2 56842  42.9996 152.1913 0000993 238.9544 121.1202 15.03638226151646
STARLINK-30137          
1 56843U 23079W   26060.50003471  .00067312  00000+0  44384-2 0  9994
2 56843  43.0008 151.7610 0002324 257.3491  66.4929 15.06614425  5810
STARLINK-30136          
1 56844U 23079X   26060.50003471  .00030535  00000+0  18889-2 0  9993
2 56844  43.0003 151.9785 0000913 287.5456 300.0365 15.09290197  5819
STARLINK-6206           
1 56876U 23083A   26060.49847445  .00000209  00000+0  30542-4 0  9995
2 56876  43.0024 126.6830 0001337 261.3252  98.7439 15.02534454150434
STARLINK-6209           
1 56877U 23083B   26060.22479380  .00000859  00000+0  78620-4 0  9996
2 56877  43.0032 128.0675 0001354 271.3581  88.7107 15.02535658150395
STARLINK-6182           
1 56878U 23083C   26060.23145360 -.00000156  00000+0  34967-5 0  9994
2 56878  43.0002 128.1184 0001154 273.0825  86.9885 15.02531893150397
STARLINK-5707           
1 56879U 23083D   26060.16164613  .00002126  00000+0  17250-3 0  9991
2 56879  43.0022 128.4554 0001482 261.7518  98.3156 15.02520385150382
STARLINK-6177           
1 56880U 23083E   26060.21147558 -.00000168  00000+0  26085-5 0  9991
2 56880  43.0027 127.9694 0001145 264.2971  95.7741 15.02533284150399
STARLINK-5853           
1 56881U 23083F   26060.15942826 -.00000888  00000+0 -50683-4 0  9996
2 56881  43.0009 128.4378 0001327 277.2553  82.8138 15.02543474150385
STARLINK-6175           
1 56882U 23083G   26060.21258016  .00001144  00000+0  99737-4 0  9992
2 56882  43.0032 127.9740 0001591 267.1061  92.9599 15.02536616150398
STARLINK-6171           
1 56883U 23083H   26060.22257022  .00000122  00000+0  24100-4 0  9997
2 56883  43.0029 128.0509 0000749 214.8227 145.2566 15.02538239150396
