OBJECT_NAME,OBJECT_ID,EPOCH,MEAN_MOTION,ECCENTRICITY,INCLINATION,RA_OF_ASC_NODE,ARG_OF_PERICENTER,MEAN_ANOMALY,EPHEMERIS_TYPE,CLASSIFICATION_TYPE,NORAD_CAT_ID,ELEMENT_SET_NO,REV_AT_EPOCH,BSTAR,MEAN_MOTION_DOT,MEAN_MOTION_DDOT
STARLINK-6059,2023-078AZ,2026-03-01T06:42:57.693024,14.98314761,.0002621,70.0033,5.5351,274.6653,85.4207,0,U,56814,999,15142,-.26075E-4,-.404E-5,0
STARLINK-6067,2023-078BB,2026-03-01T04:18:24.371136,14.98325529,.00028499,70.0020,345.7160,262.3135,97.7701,0,U,56816,999,15190,-.63675785E-4,-.853E-5,0
STARLINK-6028,2023-078BD,2026-03-01T06:30:55.581696,14.98331046,.0002506,70.0028,5.5052,272.2929,87.7943,0,U,56818,999,15211,.90734E-5,.15E-6,0
STARLINK-30119,2023-079A,2026-03-01T12:00:02.998944,15.07053768,.0001531,43.0004,151.9727,247.5847,28.1979,0,U,56823,999,566,.41652E-2,.63882E-3,0
STARLINK-30120,2023-079B,2026-03-01T09:09:37.054368,15.03419782,.0001123,43.0024,152.6048,261.5328,98.5387,0,U,56824,999,15195,.79178E-2,.111042E-2,0
STARLINK-30084,2023-079C,2026-03-01T12:00:02.998944,15.10952373,.0002205,43.0005,151.7601,265.5633,98.8209,0,U,56825,999,561,.33585E-2,.57238E-3,0
STARLINK-30114,2023-079D,2026-02-27T08:02:14.198784,15.02765231,.00017243,43.0022,163.7181,152.6916,207.4018,0,U,56826,999,15164,.23135587E-2,.3138E-3,0
STARLINK-30151,2023-079E,2026-03-01T12:00:02.998944,15.05492762,.0002586,43.0007,151.8243,267.7853,68.3748,0,U,56827,999,581,.40376E-2,.59318E-3,0
STARLINK-30152,2023-079F,2026-03-01T12:00:02.998944,15.06818902,.0002491,43.0016,151.7688,270.0803,92.8936,0,U,56828,999,581,.40372E-2,.61499E-3,0
STARLINK-30128,2023-079K,2026-03-01T04:59:34.965312,15.02565722,.0000887,43.0017,127.4554,297.5821,62.4931,0,U,56832,999,14550,.27003E-3,.3449E-4,0
STARLINK-30131,2023-079L,2026-03-01T04:43:39.129024,15.02550483,.00010238,43.0015,127.5339,298.0953,61.9786,0,U,56833,999,15190,.18300359E-3,.227E-4,0
STARLINK-30069,2023-079M,2026-03-01T12:00:02.998944,15.26745457,.0001101,42.9999,149.8322,280.0105,179.6660,0,U,56834,999,547,-.34632E-3,-.9539E-4,0
STARLINK-30144,2023-079N,2026-03-01T12:00:02.998944,15.26845949,.0001041,42.9996,149.9088,281.1420,149.4966,0,U,56835,999,567,.67735E-3,.18012E-3,0
STARLINK-30142,2023-079P,2026-03-01T12:00:02.998944,15.27576594,.0001427,43.0004,150.0628,279.7232,85.4574,0,U,56836,999,567,.18535E-4,.248E-5,0
STARLINK-30133,2023-079Q,2026-03-01T12:00:02.998944,15.07694998,.0001758,43.0002,151.5623,314.8613,125.9122,0,U,56837,999,567,.35517E-2,.55334E-3,0
STARLINK-30123,2023-079R,2026-03-01T02:34:53.885568,15.27573897,.00009396,43.0072,82.4041,222.3991,137.6788,0,U,56838,999,15243,-.45413067E-4,-.1511E-4,0
STARLINK-30076,2023-079S,2026-03-01T06:52:09.272352,15.02513432,.0001624,43.0021,152.7366,289.7911,70.2757,0,U,56839,999,15162,-.163E-3,-.2403E-4,0
STARLINK-30073,2023-079T,2026-03-01T12:00:02.998944,15.36959636,.0001667,43.0049,338.8176,267.6713,279.6900,0,U,56840,999,583,-.3311E-1,-.1118494E-1,0
STARLINK-30078,2023-079U,2026-03-01T11:38:38.374368,15.27580844,.0001275,43.0008,105.6991,274.1016,85.9690,0,U,56841,999,15219,.31329E-5,-.176E-5,0
STARLINK-30135,2023-079V,2026-03-01T10:54:28.087200,15.03638226,.0000993,42.9996,152.1913,238.9544,121.1202,0,U,56842,999,15164,.94707E-2,.134079E-2,0
STARLINK-30137,2023-079W,2026-03-01T12:00:02.998944,15.06614425,.0002324,43.0008,151.7610,257.3491,66.4929,0,U,56843,999,581,.44384E-2,.67312E-3,0
STARLINK-30136,2023-079X,2026-03-01T12:00:02.998944,15.09290197,.0000913,43.0003,151.9785,287.5456,300.0365,0,U,56844,999,581,.18889E-2,.30535E-3,0
STARLINK-6206,2023-083A,2026-03-01T11:57:48.192480,15.02534454,.0001337,43.0024,126.6830,261.3252,98.7439,0,U,56876,999,15043,.30542E-4,.209E-5,0
STARLINK-6209,2023-083B,2026-03-01T05:23:42.184320,15.02535658,.0001354,43.0032,128.0675,271.3581,88.7107,0,U,56877,999,15039,.7862E-4,.859E-5,0
STARLINK-6182,2023-083C,2026-03-01T05:33:17.591040,15.02531893,.0001154,43.0002,128.1184,273.0825,86.9885,0,U,56878,999,15039,.34967E-5,-.156E-5,0
STARLINK-5707,2023-083D,2026-03-01T03:52:46.225632,15.02520385,.00014827,43.0022,128.4554,261.7518,98.3156,0,U,56879,999,15038,.17249882E-3,.2126E-4,0
STARLINK-6177,2023-083E,2026-03-01T05:04:31.490112,15.02533284,.0001145,43.0027,127.9694,264.2971,95.7741,0,U,56880,999,15039,.26085E-5,-.168E-5,0
STARLINK-5853,2023-083F,2026-03-01T03:49:34.601664,15.02543474,.00013279,43.0009,128.4378,277.2553,82.8138,0,U,56881,999,15038,-.50683334E-4,-.888E-5,0
STARLINK-6175,2023-083G,2026-03-01T05:06:06.925824,15.02536616,.0001591,43.0032,127.9740,267.1061,92.9599,0,U,56882,999,15039,.99737E-4,.1144E-4,0
STARLINK-6171,2023-083H,2026-03-01T05:20:30.067008,15.02538239,.0000749,43.0029,128.0509,214.8227,145.2566,0,U,56883,999,15039,.241E-4,.122E-5,0
